{
  "type": "FeatureCollection",
  "features": [
    {
      "type": "Feature",
      "properties": {
        "norad_id": 41772,
        "name": "SKYSAT-C5",
        "group": "resource",
        "lat": 47.89623584365495,
        "lon": -137.69969908203066,
        "alt_km": 460.26548563465985,
        "timestamp": "2025-12-16T19:34:23.922430+00:00",
        "meta_object_name": "SKYSAT-C5",
        "meta_object_id": "2016-058C",
        "meta_epoch": "2025-12-15T13:15:38.629152",
        "meta_mean_motion": 15.34228407,
        "meta_eccentricity": 0.00028175,
        "meta_inclination": 97.0769,
        "meta_ra_of_asc_node": 33.1875,
        "meta_arg_of_pericenter": 269.3508,
        "meta_mean_anomaly": 90.7413,
        "meta_ephemeris_type": 0,
        "meta_classification_type": "U",
        "meta_norad_cat_id": 41772,
        "meta_element_set_no": 999,
        "meta_rev_at_epoch": 51559,
        "meta_bstar": 0.00028372843,
        "meta_mean_motion_dot": 9.329e-05,
        "meta_mean_motion_ddot": 0,
        "tle_line1": "1 41772U 16058C   25349.55253043  .00009329  00000+0  28373-3 0  9999",
        "tle_line2": "2 41772  97.0769  33.1875 0002817 269.3508  90.7413 15.34228407515594"
      },
      "geometry": {
        "type": "Point",
        "coordinates": [
          -137.69969908203066,
          47.89623584365495
        ]
      }
    },
    {
      "type": "Feature",
      "properties": {
        "norad_id": 41773,
        "name": "SKYSAT-C2",
        "group": "resource",
        "lat": -6.216528396513196,
        "lon": -165.60066991917915,
        "alt_km": 460.3750650406355,
        "timestamp": "2025-12-16T19:34:23.922440+00:00",
        "meta_object_name": "SKYSAT-C2",
        "meta_object_id": "2016-058D",
        "meta_epoch": "2025-12-15T19:20:02.610528",
        "meta_mean_motion": 15.37343111,
        "meta_eccentricity": 0.0003915,
        "meta_inclination": 97.0363,
        "meta_ra_of_asc_node": 14.2028,
        "meta_arg_of_pericenter": 26.9287,
        "meta_mean_anomaly": 333.2161,
        "meta_ephemeris_type": 0,
        "meta_classification_type": "U",
        "meta_norad_cat_id": 41773,
        "meta_element_set_no": 999,
        "meta_rev_at_epoch": 51683,
        "meta_bstar": 0.00022897846,
        "meta_mean_motion_dot": 8.305e-05,
        "meta_mean_motion_ddot": 0,
        "tle_line1": "1 41773U 16058D   25349.80558577  .00008305  00000+0  22898-3 0  9997",
        "tle_line2": "2 41773  97.0363  14.2028 0003915  26.9287 333.2161 15.37343111516832"
      },
      "geometry": {
        "type": "Point",
        "coordinates": [
          -165.60066991917915,
          -6.216528396513196
        ]
      }
    },
    {
      "type": "Feature",
      "properties": {
        "norad_id": 41774,
        "name": "SKYSAT-C3",
        "group": "resource",
        "lat": 59.71554113741495,
        "lon": -143.60568556084758,
        "alt_km": 425.84246916026314,
        "timestamp": "2025-12-16T19:34:23.922450+00:00",
        "meta_object_name": "SKYSAT-C3",
        "meta_object_id": "2016-058E",
        "meta_epoch": "2025-12-15T19:44:03.359904",
        "meta_mean_motion": 15.44509266,
        "meta_eccentricity": 0.00017717,
        "meta_inclination": 96.9302,
        "meta_ra_of_asc_node": 23.4252,
        "meta_arg_of_pericenter": 107.793,
        "meta_mean_anomaly": 252.3513,
        "meta_ephemeris_type": 0,
        "meta_classification_type": "U",
        "meta_norad_cat_id": 41774,
        "meta_element_set_no": 999,
        "meta_rev_at_epoch": 51773,
        "meta_bstar": 0.00029725495,
        "meta_mean_motion_dot": 0.00013709,
        "meta_mean_motion_ddot": 0,
        "tle_line1": "1 41774U 16058E   25349.82226111  .00013709  00000+0  29725-3 0  9996",
        "tle_line2": "2 41774  96.9302  23.4252 0001771 107.7930 252.3513 15.44509266517731"
      },
      "geometry": {
        "type": "Point",
        "coordinates": [
          -143.60568556084758,
          59.71554113741495
        ]
      }
    },
    {
      "type": "Feature",
      "properties": {
        "norad_id": 41785,
        "name": "ALSAT 1B",
        "group": "resource",
        "lat": -2.6661375369898956,
        "lon": 2.7949479491404587,
        "alt_km": 658.3190978132079,
        "timestamp": "2025-12-16T19:34:23.922460+00:00",
        "meta_object_name": "ALSAT 1B",
        "meta_object_id": "2016-059C",
        "meta_epoch": "2025-12-16T00:00:34.126272",
        "meta_mean_motion": 14.72079717,
        "meta_eccentricity": 0.00107821,
        "meta_inclination": 97.782,
        "meta_ra_of_asc_node": 1.65,
        "meta_arg_of_pericenter": 94.1171,
        "meta_mean_anomaly": 266.1269,
        "meta_ephemeris_type": 0,
        "meta_classification_type": "U",
        "meta_norad_cat_id": 41785,
        "meta_element_set_no": 999,
        "meta_rev_at_epoch": 49362,
        "meta_bstar": 9.0801803e-05,
        "meta_mean_motion_dot": 5.24e-06,
        "meta_mean_motion_ddot": 0,
        "tle_line1": "1 41785U 16059C   25350.00039498  .00000524  00000+0  90802-4 0  9997",
        "tle_line2": "2 41785  97.7820   1.6500 0010782  94.1171 266.1269 14.72079717493624"
      },
      "geometry": {
        "type": "Point",
        "coordinates": [
          2.7949479491404587,
          -2.6661375369898956
        ]
      }
    },
    {
      "type": "Feature",
      "properties": {
        "norad_id": 41787,
        "name": "PATHFINDER 1",
        "group": "resource",
        "lat": 6.02940654708544,
        "lon": -7.430951973701665,
        "alt_km": 661.9900884286371,
        "timestamp": "2025-12-16T19:34:23.922471+00:00",
        "meta_object_name": "PATHFINDER 1",
        "meta_object_id": "2016-059E",
        "meta_epoch": "2025-12-15T22:16:11.147520",
        "meta_mean_motion": 14.67326757,
        "meta_eccentricity": 0.00299753,
        "meta_inclination": 97.8138,
        "meta_ra_of_asc_node": 352.5536,
        "meta_arg_of_pericenter": 71.5313,
        "meta_mean_anomaly": 288.9147,
        "meta_ephemeris_type": 0,
        "meta_classification_type": "U",
        "meta_norad_cat_id": 41787,
        "meta_element_set_no": 999,
        "meta_rev_at_epoch": 49283,
        "meta_bstar": 0.00014553505,
        "meta_mean_motion_dot": 7.8e-06,
        "meta_mean_motion_ddot": 0,
        "tle_line1": "1 41787U 16059E   25349.92790680  .00000780  00000+0  14554-3 0  9998",
        "tle_line2": "2 41787  97.8138 352.5536 0029975  71.5313 288.9147 14.67326757492839"
      },
      "geometry": {
        "type": "Point",
        "coordinates": [
          -7.430951973701665,
          6.02940654708544
        ]
      }
    },
    {
      "type": "Feature",
      "properties": {
        "norad_id": 41790,
        "name": "SCATSAT 1",
        "group": "resource",
        "lat": 9.797863863527818,
        "lon": -131.04587281523683,
        "alt_km": 611.4352635339155,
        "timestamp": "2025-12-16T19:34:23.922481+00:00",
        "meta_object_name": "SCATSAT 1",
        "meta_object_id": "2016-059H",
        "meta_epoch": "2025-12-15T18:27:20.738592",
        "meta_mean_motion": 14.78946647,
        "meta_eccentricity": 0.00563545,
        "meta_inclination": 98.1462,
        "meta_ra_of_asc_node": 46.4771,
        "meta_arg_of_pericenter": 118.4204,
        "meta_mean_anomaly": 242.2702,
        "meta_ephemeris_type": 0,
        "meta_classification_type": "U",
        "meta_norad_cat_id": 41790,
        "meta_element_set_no": 999,
        "meta_rev_at_epoch": 7447,
        "meta_bstar": 0.00021276047,
        "meta_mean_motion_dot": 1.555e-05,
        "meta_mean_motion_ddot": 0,
        "tle_line1": "1 41790U 16059H   25349.76899003  .00001555  00000+0  21276-3 0  9993",
        "tle_line2": "2 41790  98.1462  46.4771 0056354 118.4204 242.2702 14.78946647 74472"
      },
      "geometry": {
        "type": "Point",
        "coordinates": [
          -131.04587281523683,
          9.797863863527818
        ]
      }
    },
    {
      "type": "Feature",
      "properties": {
        "norad_id": 41875,
        "name": "GOKTURK 1A",
        "group": "resource",
        "lat": 16.942684532989972,
        "lon": -119.37374510919852,
        "alt_km": 684.2926090235878,
        "timestamp": "2025-12-16T19:34:23.922492+00:00",
        "meta_object_name": "GOKTURK 1A",
        "meta_object_id": "2016-073A",
        "meta_epoch": "2025-12-15T23:47:42.250272",
        "meta_mean_motion": 14.62783919,
        "meta_eccentricity": 0.0001251,
        "meta_inclination": 98.1429,
        "meta_ra_of_asc_node": 242.3133,
        "meta_arg_of_pericenter": 79.1749,
        "meta_mean_anomaly": 280.9593,
        "meta_ephemeris_type": 0,
        "meta_classification_type": "U",
        "meta_norad_cat_id": 41875,
        "meta_element_set_no": 999,
        "meta_rev_at_epoch": 48204,
        "meta_bstar": 8.6717232e-05,
        "meta_mean_motion_dot": 3.95e-06,
        "meta_mean_motion_ddot": 0,
        "tle_line1": "1 41875U 16073A   25349.99146123  .00000395  00000+0  86717-4 0  9999",
        "tle_line2": "2 41875  98.1429 242.3133 0001251  79.1749 280.9593 14.62783919482048"
      },
      "geometry": {
        "type": "Point",
        "coordinates": [
          -119.37374510919852,
          16.942684532989972
        ]
      }
    }
  ]
}